start=new Date('2022-01-24T00:00:00.000Z').valueOf();
sats=[{"REF_FRAME":"TEME","ECCENTRICITY":"0.00019010","TIME_SYSTEM":"UTC","PERIOD":"95.592","BSTAR":"0.00030296000000","PERIAPSIS":"545.903","SEMIMAJOR_AXIS":"6925.355","LAUNCH_DATE":"2020-06-04","TLE_LINE1":"1 45696U 20035AR  22023.28826875  .00004234  00000-0  30296-3 0  9991","ARG_OF_PERICENTER":"59.1380","EPHEMERIS_TYPE":"0","MEAN_MOTION_DOT":"0.00004234","INCLINATION":"53.0556","TLE_LINE2":"2 45696  53.0556 339.1149 0001901  59.1380 300.9796 15.06398045 91817","SITE":"AFETR","OBJECT_NAME":"STARLINK-1422","CENTER_NAME":"EARTH","CLASSIFICATION_TYPE":"U","COUNTRY_CODE":"US","MEAN_MOTION":"15.06398045","NORAD_CAT_ID":"45696","OBJECT_TYPE":"PAYLOAD","RA_OF_ASC_NODE":"339.1149","DECAY_DATE":null,"GP_ID":"194461914","MEAN_MOTION_DDOT":"0.0000000000000","REV_AT_EPOCH":"9181","RCS_SIZE":"LARGE","EPOCH":"2022-01-23T06:55:06.420000","APOAPSIS":"548.536","ELEMENT_SET_NO":"999","MEAN_ELEMENT_THEORY":"SGP4","OBJECT_ID":"2020-035AR","FILE":"3280923","MEAN_ANOMALY":"300.9796"},{"NORAD_CAT_ID":"45697","COUNTRY_CODE":"US","MEAN_MOTION":"15.06399863","CLASSIFICATION_TYPE":"U","CENTER_NAME":"EARTH","OBJECT_NAME":"STARLINK-1351","SITE":"AFETR","TLE_LINE2":"2 45697  53.0547 316.8455 0001664  72.9392 287.1779 15.06399863 91773","MEAN_ANOMALY":"287.1779","FILE":"3281065","OBJECT_ID":"2020-035AS","MEAN_ELEMENT_THEORY":"SGP4","RCS_SIZE":"LARGE","APOAPSIS":"548.366","ELEMENT_SET_NO":"999","EPOCH":"2022-01-23T19:04:58.401696","REV_AT_EPOCH":"9177","MEAN_MOTION_DDOT":"0.0000000000000","GP_ID":"194470131","DECAY_DATE":null,"RA_OF_ASC_NODE":"316.8455","OBJECT_TYPE":"PAYLOAD","PERIAPSIS":"546.062","BSTAR":"0.00044612000000","PERIOD":"95.592","TIME_SYSTEM":"UTC","ECCENTRICITY":"0.00016640","REF_FRAME":"TEME","INCLINATION":"53.0547","MEAN_MOTION_DOT":"0.00006370","EPHEMERIS_TYPE":"0","ARG_OF_PERICENTER":"72.9392","TLE_LINE1":"1 45697U 20035AS  22023.79512039  .00006370  00000-0  44612-3 0  9992","LAUNCH_DATE":"2020-06-04","SEMIMAJOR_AXIS":"6925.349"},{"TIME_SYSTEM":"UTC","ECCENTRICITY":"0.00016440","REF_FRAME":"TEME","PERIAPSIS":"546.068","BSTAR":"0.00007858900000","PERIOD":"95.592","ARG_OF_PERICENTER":"63.8376","TLE_LINE1":"1 45698U 20035AT  22023.51866016  .00000889  00000-0  78589-4 0  9990","EPHEMERIS_TYPE":"0","SEMIMAJOR_AXIS":"6925.342","LAUNCH_DATE":"2020-06-04","INCLINATION":"53.0559","MEAN_MOTION_DOT":"0.00000889","SITE":"AFETR","OBJECT_NAME":"STARLINK-1370","TLE_LINE2":"2 45698  53.0559 318.0932 0001644  63.8376 296.2782 15.06402262 92145","NORAD_CAT_ID":"45698","MEAN_MOTION":"15.06402262","COUNTRY_CODE":"US","CLASSIFICATION_TYPE":"U","CENTER_NAME":"EARTH","REV_AT_EPOCH":"9214","MEAN_MOTION_DDOT":"0.0000000000000","RA_OF_ASC_NODE":"318.0932","OBJECT_TYPE":"PAYLOAD","GP_ID":"194462409","DECAY_DATE":null,"MEAN_ANOMALY":"296.2782","MEAN_ELEMENT_THEORY":"SGP4","APOAPSIS":"548.345","RCS_SIZE":"LARGE","EPOCH":"2022-01-23T12:26:52.237824","ELEMENT_SET_NO":"999","FILE":"3280923","OBJECT_ID":"2020-035AT"},{"FILE":"3281181","OBJECT_ID":"2020-035AU","MEAN_ELEMENT_THEORY":"SGP4","ELEMENT_SET_NO":"999","RCS_SIZE":"LARGE","APOAPSIS":"548.398","EPOCH":"2022-01-23T18:33:05.459904","MEAN_ANOMALY":"295.7079","GP_ID":"194473182","DECAY_DATE":null,"RA_OF_ASC_NODE":"316.9401","OBJECT_TYPE":"PAYLOAD","REV_AT_EPOCH":"9181","MEAN_MOTION_DDOT":"0.0000000000000","CLASSIFICATION_TYPE":"U","CENTER_NAME":"EARTH","NORAD_CAT_ID":"45699","COUNTRY_CODE":"US","MEAN_MOTION":"15.06398804","TLE_LINE2":"2 45699  53.0567 316.9401 0001705  64.4086 295.7079 15.06398804 91818","OBJECT_NAME":"STARLINK-1398","SITE":"AFETR","MEAN_MOTION_DOT":"0.00000600","INCLINATION":"53.0567","LAUNCH_DATE":"2020-06-04","SEMIMAJOR_AXIS":"6925.352","EPHEMERIS_TYPE":"0","ARG_OF_PERICENTER":"64.4086","TLE_LINE1":"1 45699U 20035AU  22023.77297986  .00000600  00000-0  59197-4 0  9998","BSTAR":"0.00005919700000","PERIOD":"95.592","PERIAPSIS":"546.036","ECCENTRICITY":"0.00017050","REF_FRAME":"TEME","TIME_SYSTEM":"UTC"},{"FILE":"3280923","OBJECT_ID":"2020-035AV","MEAN_ELEMENT_THEORY":"SGP4","RCS_SIZE":"LARGE","APOAPSIS":"548.218","ELEMENT_SET_NO":"999","EPOCH":"2022-01-23T12:05:38.344128","MEAN_ANOMALY":"268.1212","GP_ID":"194461415","DECAY_DATE":null,"RA_OF_ASC_NODE":"318.1651","OBJECT_TYPE":"PAYLOAD","REV_AT_EPOCH":"9213","MEAN_MOTION_DDOT":"0.0000000000000","CENTER_NAME":"EARTH","CLASSIFICATION_TYPE":"U","NORAD_CAT_ID":"45700","MEAN_MOTION":"15.06424606","COUNTRY_CODE":"US","TLE_LINE2":"2 45700  53.0547 318.1651 0001559  91.9955 268.1212 15.06424606 92136","OBJECT_NAME":"STARLINK-1400","SITE":"AFETR","MEAN_MOTION_DOT":"0.00007129","INCLINATION":"53.0547","LAUNCH_DATE":"2020-06-04","SEMIMAJOR_AXIS":"6925.273","EPHEMERIS_TYPE":"0","ARG_OF_PERICENTER":"91.9955","TLE_LINE1":"1 45700U 20035AV  22023.50391602  .00007129  00000-0  49670-3 0  9999","BSTAR":"0.00049670000000","PERIOD":"95.591","PERIAPSIS":"546.058","ECCENTRICITY":"0.00015590","REF_FRAME":"TEME","TIME_SYSTEM":"UTC"},{"MEAN_MOTION_DOT":"0.00003222","INCLINATION":"53.0543","LAUNCH_DATE":"2020-06-04","SEMIMAJOR_AXIS":"6925.348","EPHEMERIS_TYPE":"0","TLE_LINE1":"1 45701U 20035AW  22023.53339273  .00003222  00000-0  23510-3 0  9994","ARG_OF_PERICENTER":"63.1123","PERIOD":"95.592","BSTAR":"0.00023510000000","PERIAPSIS":"546.057","REF_FRAME":"TEME","ECCENTRICITY":"0.00016680","TIME_SYSTEM":"UTC","OBJECT_ID":"2020-035AW","FILE":"3280923","RCS_SIZE":"LARGE","APOAPSIS":"548.368","EPOCH":"2022-01-23T12:48:05.131872","ELEMENT_SET_NO":"999","MEAN_ELEMENT_THEORY":"SGP4","MEAN_ANOMALY":"297.0036","DECAY_DATE":null,"GP_ID":"194462666","OBJECT_TYPE":"PAYLOAD","RA_OF_ASC_NODE":"318.0046","MEAN_MOTION_DDOT":"0.0000000000000","REV_AT_EPOCH":"9213","CLASSIFICATION_TYPE":"U","CENTER_NAME":"EARTH","COUNTRY_CODE":"US","MEAN_MOTION":"15.06400335","NORAD_CAT_ID":"45701","TLE_LINE2":"2 45701  53.0543 318.0046 0001668  63.1123 297.0036 15.06400335 92137","OBJECT_NAME":"STARLINK-1403","SITE":"AFETR"},{"COUNTRY_CODE":"US","MEAN_MOTION":"15.06412038","NORAD_CAT_ID":"45702","CLASSIFICATION_TYPE":"U","CENTER_NAME":"EARTH","SITE":"AFETR","OBJECT_NAME":"STARLINK-1405","TLE_LINE2":"2 45702  53.0545 318.0983 0001710  61.1797 298.9364 15.06412038 92130","MEAN_ANOMALY":"298.9364","RCS_SIZE":"LARGE","ELEMENT_SET_NO":"999","APOAPSIS":"548.361","EPOCH":"2022-01-23T12:21:32.721120","MEAN_ELEMENT_THEORY":"SGP4","OBJECT_ID":"2020-035AX","FILE":"3280923","MEAN_MOTION_DDOT":"0.0000000000000","REV_AT_EPOCH":"9213","OBJECT_TYPE":"PAYLOAD","RA_OF_ASC_NODE":"318.0983","DECAY_DATE":null,"GP_ID":"194462909","PERIAPSIS":"545.992","PERIOD":"95.591","BSTAR":"0.00034526000000","TIME_SYSTEM":"UTC","REF_FRAME":"TEME","ECCENTRICITY":"0.00017100","INCLINATION":"53.0545","MEAN_MOTION_DOT":"0.00004866","TLE_LINE1":"1 45702U 20035AX  22023.51496205  .00004866  00000-0  34526-3 0  9996","ARG_OF_PERICENTER":"61.1797","EPHEMERIS_TYPE":"0","SEMIMAJOR_AXIS":"6925.312","LAUNCH_DATE":"2020-06-04"},{"BSTAR":"0.00006120800000","PERIOD":"95.593","PERIAPSIS":"545.995","ECCENTRICITY":"0.00017950","REF_FRAME":"TEME","TIME_SYSTEM":"UTC","MEAN_MOTION_DOT":"0.00000630","INCLINATION":"53.0556","SEMIMAJOR_AXIS":"6925.373","LAUNCH_DATE":"2020-06-04","ARG_OF_PERICENTER":"70.2522","TLE_LINE1":"1 45703U 20035AY  22023.51128076  .00000630  00000-0  61208-4 0  9998","EPHEMERIS_TYPE":"0","CLASSIFICATION_TYPE":"U","CENTER_NAME":"EARTH","NORAD_CAT_ID":"45703","COUNTRY_CODE":"US","MEAN_MOTION":"15.06391880","TLE_LINE2":"2 45703  53.0556 318.1249 0001795  70.2522 289.8660 15.06391880 91722","SITE":"AFETR","OBJECT_NAME":"STARLINK-1407","MEAN_ELEMENT_THEORY":"SGP4","RCS_SIZE":"LARGE","ELEMENT_SET_NO":"999","APOAPSIS":"548.482","EPOCH":"2022-01-23T12:16:14.657664","FILE":"3281187","OBJECT_ID":"2020-035AY","MEAN_ANOMALY":"289.8660","RA_OF_ASC_NODE":"318.1249","OBJECT_TYPE":"PAYLOAD","GP_ID":"194473061","DECAY_DATE":null,"REV_AT_EPOCH":"9172","MEAN_MOTION_DDOT":"0.0000000000000"},{"MEAN_MOTION_DOT":"0.00008044","INCLINATION":"53.0596","LAUNCH_DATE":"2020-06-04","SEMIMAJOR_AXIS":"6925.305","EPHEMERIS_TYPE":"0","ARG_OF_PERICENTER":"64.3395","TLE_LINE1":"1 45704U 20035AZ  22023.27167094  .00008044  00000-0  55810-3 0  9993","BSTAR":"0.00055810000000","PERIOD":"95.591","PERIAPSIS":"545.932","ECCENTRICITY":"0.00017870","REF_FRAME":"TEME","TIME_SYSTEM":"UTC","FILE":"3280923","OBJECT_ID":"2020-035AZ","MEAN_ELEMENT_THEORY":"SGP4","ELEMENT_SET_NO":"999","RCS_SIZE":"LARGE","APOAPSIS":"548.407","EPOCH":"2022-01-23T06:31:12.369216","MEAN_ANOMALY":"295.7779","GP_ID":"194461915","DECAY_DATE":null,"RA_OF_ASC_NODE":"349.1773","OBJECT_TYPE":"PAYLOAD","REV_AT_EPOCH":"9168","MEAN_MOTION_DDOT":"0.0000000000000","CENTER_NAME":"EARTH","CLASSIFICATION_TYPE":"U","NORAD_CAT_ID":"45704","MEAN_MOTION":"15.06414316","COUNTRY_CODE":"US","TLE_LINE2":"2 45704  53.0596 349.1773 0001787  64.3395 295.7779 15.06414316 91688","OBJECT_NAME":"STARLINK-1409","SITE":"AFETR"},{"PERIAPSIS":"546.032","BSTAR":"0.00006835100000","PERIOD":"95.593","TIME_SYSTEM":"UTC","ECCENTRICITY":"0.00017420","REF_FRAME":"TEME","INCLINATION":"53.0552","MEAN_MOTION_DOT":"0.00000736","EPHEMERIS_TYPE":"0","ARG_OF_PERICENTER":"68.0621","TLE_LINE1":"1 45705U 20035BA  22023.29841639  .00000736  00000-0  68351-4 0  9995","LAUNCH_DATE":"2020-06-04","SEMIMAJOR_AXIS":"6925.373","NORAD_CAT_ID":"45705","MEAN_MOTION":"15.06391913","COUNTRY_CODE":"US","CENTER_NAME":"EARTH","CLASSIFICATION_TYPE":"U","OBJECT_NAME":"STARLINK-1410","SITE":"AFETR","TLE_LINE2":"2 45705  53.0552 349.0775 0001742  68.0621 292.0553 15.06391913 91672","MEAN_ANOMALY":"292.0553","FILE":"3280923","OBJECT_ID":"2020-035BA","MEAN_ELEMENT_THEORY":"SGP4","EPOCH":"2022-01-23T07:09:43.176096","RCS_SIZE":"LARGE","APOAPSIS":"548.445","ELEMENT_SET_NO":"999","REV_AT_EPOCH":"9167","MEAN_MOTION_DDOT":"0.0000000000000","GP_ID":"194462167","DECAY_DATE":null,"RA_OF_ASC_NODE":"349.0775","OBJECT_TYPE":"PAYLOAD"}];
